{"_default": { "13": {"norad_id": "41847", "name": "CZ-11 R/B", "tle1": "1 41847U 16066G   26162.76895627  .00001472  00000-0  21366-3 0  9995", "tle2": "2 41847  98.3821 238.5671 0342619 145.8677 216.5069 14.44676151504010", "object_type": "ROCKET_BODY", "criticality_score": 9.0, "last_updated": "2026-06-12T12:52:23.908888+00:00", "maneuver_count": 0, "owner": "N/A"}, "14": {"norad_id": "41789", "name": "ALSAT 1N", "tle1": "1 41789U 16059G   26162.93992438  .00000761  00000-0  13637-3 0  9991", "tle2": "2 41789  97.8010 166.5243 0025060 201.7713 158.2431 14.69298563519234", "object_type": "PAYLOAD", "criticality_score": 9.0, "last_updated": "2026-06-12T12:52:23.908888+00:00", "maneuver_count": 0, "owner": "N/A"}, "15": {"norad_id": "41599", "name": "CARTOSAT 2C", "tle1": "1 41599U 16040A   26162.92315411  .00002767  00000-0  13431-3 0  9999", "tle2": "2 41599  97.4488 222.9735 0010083 147.5057 212.6801 15.19272061552917", "object_type": "PAYLOAD", "criticality_score": 9.0, "last_updated": "2026-06-12T12:52:23.908888+00:00", "maneuver_count": 0, "owner": "N/A"}, "47": {"norad_id": "41339", "name": "CHUBUSAT 3", "tle1": "1 41339U 16012C   26162.94628372  .00004654  00000-0  21465-3 0  9998", "tle2": "2 41339  31.0057   5.2376 0009318  11.6643 348.4213 15.18513131567409", "object_type": "PAYLOAD", "criticality_score": 9.0, "last_updated": "2026-06-12T12:52:23.908888+00:00", "maneuver_count": 0, "owner": "N/A"}, "49": {"norad_id": "40967", "name": "FOX-1", "tle1": "1 40967U 15058D   26162.71824684  .00002264  00000-0  20997-3 0  9996", "tle2": "2 40967  64.7758 295.9784 0130128  58.7261 302.6519 14.90943463112758", "object_type": "PAYLOAD", "criticality_score": 9.0, "last_updated": "2026-06-12T12:52:23.908888+00:00", "maneuver_count": 0, "owner": "N/A"}, "50": {"norad_id": "40958", "name": "LQSAT", "tle1": "1 40958U 15057A   26162.98810416  .00000240  00000-0  41016-4 0  9990", "tle2": "2 40958  97.6679 156.6202 0015605 292.2423  67.7133 14.76776483574540", "object_type": "PAYLOAD", "criticality_score": 9.0, "last_updated": "2026-06-12T12:52:23.908888+00:00", "maneuver_count": 0, "owner": "N/A"}, "109": {"norad_id": "41783", "name": "PRATHAM", "tle1": "1 41783U 16059A   26162.51495947  .00000537  00000-0  10314-3 0  9992", "tle2": "2 41783  97.8323 159.6219 0029969 235.1987 124.6398 14.67187705518687", "object_type": "PAYLOAD", "criticality_score": 9.0, "last_updated": "2026-06-12T12:52:23.908888+00:00", "maneuver_count": 0, "owner": "N/A"}, "138": {"norad_id": "41603", "name": "LAPAN A3", "tle1": "1 41603U 16040E   26162.96954556  .00003159  00000-0  10108-3 0  9992", "tle2": "2 41603  97.1483 159.2866 0011461  42.9875 317.2261 15.33071611554018", "object_type": "PAYLOAD", "criticality_score": 9.0, "last_updated": "2026-06-12T12:52:23.908888+00:00", "maneuver_count": 0, "owner": "N/A"}, "139": {"norad_id": "41340", "name": "HORYU-4", "tle1": "1 41340U 16012D   26161.10844880  .00337518  00000-0  10043-2 0  9998", "tle2": "2 41340  30.9844 130.8123 0003461 226.4757 133.5616 15.90526809569681", "object_type": "PAYLOAD", "criticality_score": 9.0, "last_updated": "2026-06-12T12:52:23.908888+00:00", "maneuver_count": 0, "owner": "N/A"}, "140": {"norad_id": "41338", "name": "CHUBUSAT 2", "tle1": "1 41338U 16012B   26162.89424414  .00005463  00000-0  23621-3 0  9997", "tle2": "2 41338  30.9980 356.1219 0008861  23.0329 337.0708 15.20826501567612", "object_type": "PAYLOAD", "criticality_score": 9.0, "last_updated": "2026-06-12T12:52:23.908888+00:00", "maneuver_count": 0, "owner": "N/A"}, "187": {"norad_id": "40959", "name": "LINGQIAO VIDEO A", "tle1": "1 40959U 15057B   26162.94330940  .00000624  00000-0  94409-4 0  9996", "tle2": "2 40959  97.6620 158.0037 0015308 289.1724  70.7830 14.77385465574633", "object_type": "PAYLOAD", "criticality_score": 9.0, "last_updated": "2026-06-12T12:52:23.908888+00:00", "maneuver_count": 0, "owner": "N/A"}, "188": {"norad_id": "40960", "name": "LINGQIAO VIDEO B", "tle1": "1 40960U 15057C   26162.98808295  .00000143  00000-0  26814-4 0  9996", "tle2": "2 40960  97.6586 159.2112 0015441 289.0263  70.9275 14.77491240574687", "object_type": "PAYLOAD", "criticality_score": 9.0, "last_updated": "2026-06-12T12:52:23.908888+00:00", "maneuver_count": 0, "owner": "N/A"}, "190": {"norad_id": "40961", "name": "JILIN 1", "tle1": "1 40961U 15057D   26162.93625139  .00000710  00000-0  10467-3 0  9992", "tle2": "2 40961  97.6507 162.5637 0015352 281.9179  78.0311 14.78151772574839", "object_type": "PAYLOAD", "criticality_score": 9.0, "last_updated": "2026-06-12T12:52:23.908888+00:00", "maneuver_count": 0, "owner": "N/A"}, "369": {"norad_id": "41105", "name": "ELEKTRO-L 2", "tle1": "1 41105U 15074A   26161.98080809 -.00000103  00000-0  00000-0 0  9991", "tle2": "2 41105   6.6770  70.6004 0000814 270.8793 256.4532  1.00271253 38442", "object_type": "PAYLOAD", "criticality_score": 9.0, "last_updated": "2026-06-12T12:52:23.908888+00:00", "maneuver_count": 0, "owner": "N/A"}, "413": {"norad_id": "41556", "name": "ZY 3 2", "tle1": "1 41556U 16033A   26162.92821610  .00004382  00000-0  19795-3 0  9991", "tle2": "2 41556  97.3840 238.8030 0011405 310.8531  49.1715 15.21429971557184", "object_type": "PAYLOAD", "criticality_score": 9.0, "last_updated": "2026-06-12T12:52:23.908888+00:00", "maneuver_count": 0, "owner": "N/A"}, "436": {"norad_id": "41727", "name": "GAOFEN 3", "tle1": "1 41727U 16049A   26162.95000172 -.00000132  00000-0 -26795-4 0  9993", "tle2": "2 41727  98.4014 170.8148 0001282  99.6147 260.5187 14.42214390517896", "object_type": "PAYLOAD", "criticality_score": 9.0, "last_updated": "2026-06-12T12:52:23.908888+00:00", "maneuver_count": 0, "owner": "N/A"}, "464": {"norad_id": "41179", "name": "ORBCOMM FM 114", "tle1": "1 41179U 15081A   26162.36260887  .00000369  00000-0  11441-3 0  9996", "tle2": "2 41179  47.0059  29.5421 0002127 183.9472 176.1397 14.58851913556902", "object_type": "PAYLOAD", "criticality_score": 9.0, "last_updated": "2026-06-12T12:52:23.908888+00:00", "maneuver_count": 0, "owner": "N/A"}, "465": {"norad_id": "41182", "name": "ORBCOMM FM 110", "tle1": "1 41182U 15081D   26162.35108696  .00000574  00000-0  15771-3 0  9996", "tle2": "2 41182  47.0030  29.0373 0002713  41.4135 318.6956 14.58871310556773", "object_type": "PAYLOAD", "criticality_score": 9.0, "last_updated": "2026-06-12T12:52:23.908888+00:00", "maneuver_count": 0, "owner": "N/A"}, "466": {"norad_id": "41188", "name": "ORBCOMM FM 117", "tle1": "1 41188U 15081K   26162.43136015  .00000324  00000-0  10490-3 0  9993", "tle2": "2 41188  46.9998 208.0466 0003193 200.5822 159.4936 14.58860915559283", "object_type": "PAYLOAD", "criticality_score": 9.0, "last_updated": "2026-06-12T12:52:23.908888+00:00", "maneuver_count": 0, "owner": "N/A"}, "467": {"norad_id": "41189", "name": "ORBCOMM FM 116", "tle1": "1 41189U 15081L   26162.06944096  .00000524  00000-0  14702-3 0  9991", "tle2": "2 41189  47.0034 299.5479 0000895  20.3124 339.7798 14.58873761558040", "object_type": "PAYLOAD", "criticality_score": 9.0, "last_updated": "2026-06-12T12:52:23.908888+00:00", "maneuver_count": 0, "owner": "N/A"}, "468": {"norad_id": "41185", "name": "ORBCOMM FM 113", "tle1": "1 41185U 15081G   26162.64039634  .00000366  00000-0  11367-3 0  9992", "tle2": "2 41185  47.0017 296.8498 0001968 202.9654 157.1144 14.58852950558129", "object_type": "PAYLOAD", "criticality_score": 9.0, "last_updated": "2026-06-12T12:52:23.908888+00:00", "maneuver_count": 0, "owner": "N/A"}, "469": {"norad_id": "41184", "name": "ORBCOMM FM 112", "tle1": "1 41184U 15081F   26162.66394345  .00000528  00000-0  14792-3 0  9991", "tle2": "2 41184  47.0000 296.3651 0003403 194.0048 166.0744 14.58896043558148", "object_type": "PAYLOAD", "criticality_score": 9.0, "last_updated": "2026-06-12T12:52:23.908888+00:00", "maneuver_count": 0, "owner": "N/A"}, "470": {"norad_id": "41187", "name": "ORBCOMM FM 108", "tle1": "1 41187U 15081J   26162.39737644  .00000319  00000-0  10383-3 0  9997", "tle2": "2 41187  47.0051 209.5722 0002650 198.8914 161.1874 14.58864517559231", "object_type": "PAYLOAD", "criticality_score": 9.0, "last_updated": "2026-06-12T12:52:23.908888+00:00", "maneuver_count": 0, "owner": "N/A"}, "476": {"norad_id": "41877", "name": "RESOURCESAT 2A", "tle1": "1 41877U 16074A   26162.93290045 -.00000224  00000-0 -82144-4 0  9997", "tle2": "2 41877  98.7527 236.4800 0003375  93.4390 266.7173 14.21613628493558", "object_type": "PAYLOAD", "criticality_score": 9.0, "last_updated": "2026-06-12T12:52:23.908888+00:00", "maneuver_count": 0, "owner": "N/A"}, "605": {"norad_id": "40920", "name": "COSMOS 2507", "tle1": "1 40920U 15050A   26163.00009098 -.00000013  00000-0 -16550-3 0  9996", "tle2": "2 40920  82.4919  82.8989 0010442   7.7486 352.3753 12.42926492486217", "object_type": "PAYLOAD", "criticality_score": 9.0, "last_updated": "2026-06-12T12:52:23.908888+00:00", "maneuver_count": 0, "owner": "N/A"}, "606": {"norad_id": "40921", "name": "COSMOS 2508", "tle1": "1 40921U 15050B   26162.95506222 -.00000031  00000-0 -29468-3 0  9993", "tle2": "2 40921  82.4873  81.4340 0015329  37.6236 322.5912 12.42913854486198", "object_type": "PAYLOAD", "criticality_score": 9.0, "last_updated": "2026-06-12T12:52:23.908888+00:00", "maneuver_count": 0, "owner": "N/A"}, "607": {"norad_id": "40922", "name": "COSMOS 2509", "tle1": "1 40922U 15050C   26162.89477383  .00000032  00000-0  16021-3 0  9992", "tle2": "2 40922  82.4881  81.5734 0015820  53.6516 306.6021 12.42883545486222", "object_type": "PAYLOAD", "criticality_score": 9.0, "last_updated": "2026-06-12T12:52:23.908888+00:00", "maneuver_count": 0, "owner": "N/A"}, "631": {"norad_id": "41857", "name": "YUNHAI 1", "tle1": "1 41857U 16068A   26162.99836242  .00000297  00000-0  12513-3 0  9999", "tle2": "2 41857  98.5835 174.0534 0006372  55.8362 304.3425 14.32701922501082", "object_type": "PAYLOAD", "criticality_score": 9.0, "last_updated": "2026-06-12T12:52:23.908888+00:00", "maneuver_count": 0, "owner": "N/A"}, "664": {"norad_id": "41173", "name": "DAMPE", "tle1": "1 41173U 15078A   26163.00431396  .00001050  00000-0  37828-4 0  9999", "tle2": "2 41173  97.4561 168.4456 0013794  93.2081 267.0738 15.30771467583753", "object_type": "PAYLOAD", "criticality_score": 9.0, "last_updated": "2026-06-12T12:52:23.908888+00:00", "maneuver_count": 0, "owner": "N/A"}}}