OBJECT_NAME,OBJECT_ID,EPOCH,MEAN_MOTION,ECCENTRICITY,INCLINATION,RA_OF_ASC_NODE,ARG_OF_PERICENTER,MEAN_ANOMALY,EPHEMERIS_TYPE,CLASSIFICATION_TYPE,NORAD_CAT_ID,ELEMENT_SET_NO,REV_AT_EPOCH,BSTAR,MEAN_MOTION_DOT,MEAN_MOTION_DDOT
COSMOS 2507 (RODNIK-S 13),2015-050A,2026-06-12T00:00:07.860672,12.42926492,.00104418,82.4919,82.8989,7.7486,352.3753,0,U,40920,999,48621,-.16549702E-3,-.13E-6,0
COSMOS 2508 (RODNIK-S 14),2015-050B,2026-06-11T22:55:17.375808,12.42913854,.00153289,82.4873,81.4340,37.6236,322.5912,0,U,40921,999,48619,-.29467901E-3,-.31E-6,0
COSMOS 2509 (RODNIK-S 15),2015-050C,2026-06-11T21:28:28.458912,12.42883545,.00158205,82.4881,81.5734,53.6516,306.6021,0,U,40922,999,48622,.16021383E-3,.32E-6,0
LQSAT,2015-057A,2026-06-11T23:42:52.199424,14.76776483,.00156046,97.6679,156.6202,292.2423,67.7133,0,U,40958,999,57454,.4101571E-4,.24E-5,0
LINGQIAO VIDEO A,2015-057B,2026-06-11T22:38:21.932160,14.77385465,.00153076,97.6620,158.0037,289.1724,70.7830,0,U,40959,999,57463,.94408554E-4,.624E-5,0
LINGQIAO VIDEO B,2015-057C,2026-06-11T23:42:50.366880,14.77491240,.0015441,97.6586,159.2112,289.0263,70.9275,0,U,40960,999,57468,.26814475E-4,.143E-5,0
JILIN-1,2015-057D,2026-06-11T22:28:12.120096,14.78151772,.0015352,97.6507,162.5637,281.9179,78.0311,0,U,40961,999,57483,.1046737E-3,.71E-5,0
FOX-1A (AO-85),2015-058D,2026-06-11T17:14:16.526976,14.90943463,.0130128,64.7758,295.9784,58.7261,302.6519,0,U,40967,999,11275,.20996848E-3,.2264E-4,0
ELEKTRO-L 2,2015-074A,2026-06-10T23:32:21.818976,1.00271253,.0000814,6.6770,70.6004,270.8793,256.4532,0,U,41105,999,3844,0,-.103E-5,0
DAMPE,2015-078A,2026-06-12T00:06:12.726144,15.30771467,.00137937,97.4561,168.4456,93.2081,267.0738,0,U,41173,999,58375,.37827533E-4,.105E-4,0
ORBCOMM FM114,2015-081A,2026-06-11T08:42:09.406368,14.58851913,.0002127,47.0059,29.5421,183.9472,176.1397,0,U,41179,999,55690,.11441E-3,.369E-5,0
ORBCOMM FM110,2015-081D,2026-06-11T08:25:33.913344,14.58871310,.0002713,47.0030,29.0373,41.4135,318.6956,0,U,41182,999,55677,.15771E-3,.574E-5,0
ORBCOMM FM112,2015-081F,2026-06-11T15:56:04.714080,14.58896043,.0003403,47.0000,296.3651,194.0048,166.0744,0,U,41184,999,55814,.14792234E-3,.528E-5,0
ORBCOMM FM113,2015-081G,2026-06-11T15:22:10.243776,14.58852950,.00019681,47.0017,296.8498,202.9654,157.1144,0,U,41185,999,55812,.11367143E-3,.366E-5,0
ORBCOMM FM108,2015-081J,2026-06-11T09:32:13.324416,14.58864517,.000265,47.0051,209.5722,198.8914,161.1874,0,U,41187,999,55923,.10383E-3,.319E-5,0
ORBCOMM FM117,2015-081K,2026-06-11T10:21:09.516960,14.58860915,.0003193,46.9998,208.0466,200.5822,159.4936,0,U,41188,999,55928,.1049E-3,.324E-5,0
ORBCOMM FM116,2015-081L,2026-06-11T01:39:59.698944,14.58873761,.00008948,47.0034,299.5479,20.3124,339.7798,0,U,41189,999,55804,.14701744E-3,.524E-5,0
CHUBUSAT-2,2016-012B,2026-06-11T21:27:42.693696,15.20826501,.00088608,30.9980,356.1219,23.0329,337.0708,0,U,41338,999,56761,.23621384E-3,.5463E-4,0
CHUBUSAT-3,2016-012C,2026-06-11T22:42:38.913408,15.18513131,.0009318,31.0057,5.2376,11.6643,348.4213,0,U,41339,999,56740,.21464722E-3,.4654E-4,0
HORYU-4,2016-012D,2026-06-10T02:36:09.976320,15.90526809,.00034613,30.9844,130.8123,226.4757,133.5616,0,U,41340,999,56968,.10043265E-2,.337518E-2,0
ZIYUAN 3-02 (ZY 3-02),2016-033A,2026-06-11T22:16:37.871040,15.21429971,.0011405,97.3840,238.8030,310.8531,49.1715,0,U,41556,999,55718,.19795468E-3,.4382E-4,0
CARTOSAT-2C,2016-040A,2026-06-11T22:09:20.515104,15.19272061,.00100827,97.4488,222.9735,147.5057,212.6801,0,U,41599,999,55291,.13430941E-3,.2767E-4,0
LAPAN-A3,2016-040E,2026-06-11T23:16:08.736384,15.33071611,.00114611,97.1483,159.2866,42.9875,317.2261,0,U,41603,999,55401,.10107528E-3,.3159E-4,0
GAOFEN-3,2016-049A,2026-06-11T22:48:00.148608,14.42214390,.00012823,98.4014,170.8148,99.6147,260.5187,0,U,41727,999,51789,-.26794903E-4,-.132E-5,0
PRATHAM,2016-059A,2026-06-11T12:21:32.498208,14.67187705,.0029969,97.8323,159.6219,235.1987,124.6398,0,U,41783,999,51868,.10314E-3,.537E-5,0
ALSAT-1N,2016-059G,2026-06-11T22:33:29.466432,14.69298563,.002506,97.8010,166.5243,201.7713,158.2431,0,U,41789,999,51923,.13637242E-3,.761E-5,0
CAS-2T & KS-1Q,2016-066G,2026-06-11T18:27:17.821728,14.44676151,.03426192,98.3821,238.5671,145.8677,216.5069,0,U,41847,999,50401,.21365603E-3,.1472E-4,0
YUNHAI-1 01,2016-068A,2026-06-11T23:57:38.513088,14.32701922,.00063719,98.5835,174.0534,55.8362,304.3425,0,U,41857,999,50108,.12513232E-3,.297E-5,0
RESOURCESAT-2A,2016-074A,2026-06-11T22:23:22.598880,14.21613628,.00033752,98.7527,236.4800,93.4390,266.7173,0,U,41877,999,49355,-.82144267E-4,-.224E-5,0
